O3B MPOWER F1           
1 54755U 22174A   24110.00979137 -.00000027  00000+0  00000+0 0  9994
2 54755   0.0655   3.3374 0006662  30.9670  30.2840  5.00114790 25864
